H1 CPF 01  gfz 2021 09 25 12  7682 tandemx   
H2 1003001  6202 36605    2021 09 25 12 59 42 2021 09 30 00 00 42   120 1 1  0 0 0
H9
10 0 59482  79902.000000  0   -1983860.706   2043054.795   6261641.034
10 0 59482  80022.000000  0   -2285981.666   2808988.712   5849235.520
10 0 59482  80142.000000  0   -2535168.106   3530694.563   5333959.764
10 0 59482  80262.000000  0   -2727944.359   4194588.375   4724838.863
10 0 59482  80382.000000  0   -2862047.198   4788037.242   4032557.906
10 0 59482  80502.000000  0   -2936450.043   5299607.120   3269278.339
10 0 59482  80622.000000  0   -2951361.259   5719291.208   2448425.016
10 0 59482  80742.000000  0   -2908196.704   6038712.964   1584448.370
10 0 59482  80862.000000  0   -2809526.911   6251299.572    692565.916
10 0 59482  80982.000000  0   -2658999.650   6352421.581   -211512.250
10 0 59482  81102.000000  0   -2461240.532   6339494.566  -1111868.828
10 0 59482  81222.000000  0   -2221733.687   6212039.526  -1992670.705
10 0 59482  81342.000000  0   -1946683.502   5971696.613  -2838457.511
10 0 59482  81462.000000  0   -1642863.709   5622196.754  -3634416.211
10 0 59482  81582.000000  0   -1317458.943   5169294.339  -4366641.634
10 0 59482  81702.000000  0    -977901.602   4620660.410  -5022376.891
10 0 59482  81822.000000  0    -631708.205   3985742.213  -5590229.298
10 0 59482  81942.000000  0    -286318.145   3275591.234  -6060360.741
10 0 59482  82062.000000  0      51061.629   2502662.483  -6424648.000
10 0 59482  82182.000000  0     373601.837   1680591.628  -6676810.622
10 0 59482  82302.000000  0     674984.031    823954.972  -6812509.291
10 0 59482  82422.000000  0     949520.402    -51986.226  -6829412.555
10 0 59482  82542.000000  0    1192257.727   -931552.755  -6727232.114
10 0 59482  82662.000000  0    1399063.987  -1798921.291  -6507725.507
10 0 59482  82782.000000  0    1566697.213  -2638400.827  -6174669.226
10 0 59482  82902.000000  0    1692856.432  -3434710.454  -5733802.328
10 0 59482  83022.000000  0    1776212.484  -4173256.696  -5192738.582
10 0 59482  83142.000000  0    1816418.713  -4840402.232  -4560844.458
10 0 59482  83262.000000  0    1814101.621  -5423720.672  -3849088.132
10 0 59482  83382.000000  0    1770830.834  -5912236.437  -3069859.580
10 0 59482  83502.000000  0    1689067.868  -6296642.134  -2236761.683
10 0 59482  83622.000000  0    1572095.938  -6569487.186  -1364375.403
10 0 59482  83742.000000  0    1423931.658  -6725333.319   -468004.413
10 0 59482  83862.000000  0    1249220.049  -6760873.406    436598.374
10 0 59482  83982.000000  0    1053116.411  -6675006.411   1333514.265
10 0 59482  84102.000000  0     841156.170  -6468870.581   2206947.886
10 0 59482  84222.000000  0     619118.371  -6145829.151   3041515.651
10 0 59482  84342.000000  0     392883.618  -5711410.401   3822524.488
10 0 59482  84462.000000  0     168291.606  -5173205.672   4536234.895
10 0 59482  84582.000000  0     -48997.624  -4540727.969   5170105.259
10 0 59482  84702.000000  0    -253635.930  -3825233.611   5713011.845
10 0 59482  84822.000000  0    -440709.108  -3039512.059   6155441.676
10 0 59482  84942.000000  0    -605847.007  -2197648.006   6489653.093
10 0 59482  85062.000000  0    -745319.330  -1314764.551   6709803.549
10 0 59482  85182.000000  0    -856115.291   -406749.812   6812046.964
10 0 59482  85302.000000  0    -936006.334    510030.307   6794597.752
10 0 59482  85422.000000  0    -983590.075   1419027.171   6657759.963
10 0 59482  85542.000000  0    -998314.478   2303807.592   6403922.112
10 0 59482  85662.000000  0    -980482.806   3148350.583   6037518.150
10 0 59482  85782.000000  0    -931239.479   3937338.807   5564954.844
10 0 59482  85902.000000  0    -852536.131   4656439.495   4994505.142
10 0 59482  86022.000000  0    -747079.371   5292570.855   4336169.987
10 0 59482  86142.000000  0    -618260.524   5834148.633   3601506.500
10 0 59482  86262.000000  0    -470068.940   6271304.829   2803429.269
10 0 59482  86382.000000  0    -306992.006   6596081.138   1955983.933
10 0 59483    102.000000  0    -133900.588   6802582.665   1074093.867
10 0 59483    222.000000  0      44075.078   6887091.031    173291.691
10 0 59483    342.000000  0     221675.786   6848135.539   -730561.968
10 0 59483    462.000000  0     393647.521   6686518.509  -1621567.759
10 0 59483    582.000000  0     554873.599   6405292.944  -2484075.705
10 0 59483    702.000000  0     700502.806   6009696.622  -3302965.639
10 0 59483    822.000000  0     826071.313   5507044.303  -4063915.506
10 0 59483    942.000000  0     927614.807   4906580.252  -4753651.956
10 0 59483   1062.000000  0    1001768.309   4219295.669  -5360177.913
10 0 59483   1182.000000  0    1045851.429   3457716.668  -5872973.587
10 0 59483   1302.000000  0    1057936.872   2635667.760  -6283169.498
10 0 59483   1422.000000  0    1036901.758   1768015.483  -6583688.007
10 0 59483   1542.000000  0     982460.685    870399.674  -6769353.828
10 0 59483   1662.000000  0     895180.245    -41045.522  -6836974.582
10 0 59483   1782.000000  0     776475.156   -949976.716  -6785389.364
10 0 59483   1902.000000  0     628585.264  -1840127.394  -6615484.821
10 0 59483   2022.000000  0     454535.074  -2695590.074  -6330181.242
10 0 59483   2142.000000  0     258075.268  -3501094.965  -5934390.431
10 0 59483   2262.000000  0      43606.597  -4242280.858  -5434939.392
10 0 59483   2382.000000  0    -183911.117  -4905951.238  -4840463.171
10 0 59483   2502.000000  0    -419065.117  -5480313.973  -4161267.480
10 0 59483   2622.000000  0    -656108.945  -5955199.487  -3409160.455
10 0 59483   2742.000000  0    -889092.157  -6322251.688  -2597255.262
10 0 59483   2862.000000  0   -1111998.091  -6575087.659  -1739746.819
10 0 59483   2982.000000  0   -1318886.361  -6709422.054   -851664.245
10 0 59483   3102.000000  0   -1504036.451  -6723150.684     51395.982
10 0 59483   3222.000000  0   -1662089.034  -6616391.048    953549.994
10 0 59483   3342.000000  0   -1788181.652  -6391478.611   1838913.999
10 0 59483   3462.000000  0   -1878074.685  -6052918.097   2691893.291
10 0 59483   3582.000000  0   -1928264.026  -5607290.366   3497465.794
10 0 59483   3702.000000  0   -1936077.497  -5063117.914   4241453.173
10 0 59483   3822.000000  0   -1899752.603  -4430693.501   4910773.694
10 0 59483   3942.000000  0   -1818495.129  -3721877.087   5493673.144
10 0 59483   4062.000000  0   -1692516.501  -2949863.591   5979930.439
10 0 59483   4182.000000  0   -1523048.020  -2128928.579   6361031.497
10 0 59483   4302.000000  0   -1312333.185  -1274159.762   6630311.916
10 0 59483   4422.000000  0   -1063599.378   -401176.406   6783068.126
10 0 59483   4542.000000  0    -781009.163    474157.481   6816633.550
10 0 59483   4662.000000  0    -469590.756   1336020.500   6730422.720
10 0 59483   4782.000000  0    -135148.349   2168919.632   6525941.197
10 0 59483   4902.000000  0     215845.838   2957968.612   6206760.658
10 0 59483   5022.000000  0     576375.491   3689154.348   5778460.334
10 0 59483   5142.000000  0     939018.306   4349588.877   5248535.085
10 0 59483   5262.000000  0    1296096.567   4927741.515   4626270.173
10 0 59483   5382.000000  0    1639837.156   5413647.350   3922583.309
10 0 59483   5502.000000  0    1962537.700   5799086.826   3149838.616
10 0 59483   5622.000000  0    2256737.288   6077735.931   2321630.691
10 0 59483   5742.000000  0    2515383.898   6245278.435   1452541.565
10 0 59483   5862.000000  0    2731997.274   6299477.779    557877.668
10 0 59483   5982.000000  0    2900820.568   6240205.981   -346607.195
10 0 59483   6102.000000  0    3016959.144   6069431.420  -1244997.107
10 0 59483   6222.000000  0    3076502.531   5791164.083  -2121502.238
10 0 59483   6342.000000  0    3076626.091   5411360.818  -2960743.405
10 0 59483   6462.000000  0    3015670.116   4937791.975  -3748027.634
10 0 59483   6582.000000  0    2893193.619   4379873.145  -4469606.873
10 0 59483   6702.000000  0    2710002.567   3748469.018  -5112915.397
10 0 59483   6822.000000  0    2468152.718   3055673.632  -5666782.358
10 0 59483   6942.000000  0    2170928.154   2314572.366  -6121617.100
10 0 59483   7062.000000  0    1822794.831   1538990.685  -6469564.109
10 0 59483   7182.000000  0    1429332.178    743235.983  -6704626.393
10 0 59483   7302.000000  0     997143.797    -58163.172  -6822759.074
10 0 59483   7422.000000  0     533746.574   -850717.703  -6821931.972
10 0 59483   7542.000000  0      47441.862  -1620234.012  -6702158.945
10 0 59483   7662.000000  0    -452828.817  -2353060.401  -6465497.270
10 0 59483   7782.000000  0    -957643.861  -3036324.119  -6116018.012
10 0 59483   7902.000000  0   -1457274.524  -3658155.254  -5659742.891
10 0 59483   8022.000000  0   -1941867.575  -4207892.362  -5104551.031
10 0 59483   8142.000000  0   -2401636.454  -4676269.485  -4460055.394
10 0 59483   8262.000000  0   -2827057.657  -5055579.578  -3737447.032
10 0 59483   8382.000000  0   -3209067.294  -5339809.540  -2949309.499
10 0 59483   8502.000000  0   -3539254.032  -5524744.967  -2109406.390
10 0 59483   8622.000000  0   -3810044.635  -5608041.554  -1232443.924
10 0 59483   8742.000000  0   -4014876.668  -5589260.261   -333811.882
10 0 59483   8862.000000  0   -4148353.106  -5469864.325    570691.711
10 0 59483   8982.000000  0   -4206375.154  -5253177.866   1465146.055
10 0 59483   9102.000000  0   -4186249.457  -4944306.059   2333797.438
10 0 59483   9222.000000  0   -4086766.191  -4550018.775   3161345.506
10 0 59483   9342.000000  0   -3908247.110  -4078602.064   3933219.863
10 0 59483   9462.000000  0   -3652561.959  -3539680.725   4635842.226
10 0 59483   9582.000000  0   -3323112.650  -2944015.756   5256867.278
10 0 59483   9702.000000  0   -2924786.986  -2303283.921   5785397.713
10 0 59483   9822.000000  0   -2463882.935  -1629844.937   6212171.953
10 0 59483   9942.000000  0   -1948005.532   -936499.614   6529722.693
99
